NORAD_CAT_ID,OBJECT_NAME,OBJECT_TYPE,EPOCH,MEAN_MOTION,ECCENTRICITY,INCLINATION,RA_OF_ASC_NODE,ARG_OF_PERICENTER,MEAN_ANOMALY,BSTAR,MEAN_MOTION_DOT,MEAN_MOTION_DDOT,TLE_LINE0,TLE_LINE1,TLE_LINE2,SEMIMAJOR_AXIS,PERIOD,APOGEE,PERIGEE,DECAYED
52698.0,STARLINK-4030,PAYLOAD,2023-10-25 13:42:54,15.08839776,0.000132,53.2169,77.2637,86.7353,273.379,8.562e-05,1.075e-05,0.0,0 STARLINK-4030,1 52698U 22053AU  23298.57146870  .00001075  00000-0  85620-4 0  9992,2 52698  53.2169  77.2637 0001320  86.7353 273.3790 15.08839776 79920,6917.881,95.438,540.659,538.833,0.0
52698.0,STARLINK-4030,PAYLOAD,2023-10-26 02:26:00,15.08831343,0.0001413,53.2172,74.8844,85.9742,274.1412,0.00021793,3.181e-05,0.0,0 STARLINK-4030,1 52698U 22053AU  23299.10139468  .00003181  00000-0  21793-3 0  9997,2 52698  53.2172  74.8844 0001413  85.9742 274.1412 15.08831343 80006,6917.907,95.438,540.749,538.794,0.0
52698.0,STARLINK-4030,PAYLOAD,2023-10-26 13:33:42,15.08837428,0.0001445,53.2174,72.8048,88.448,271.6678,1.4632e-05,-5.5e-07,0.0,0 STARLINK-4030,1 52698U 22053AU  23299.56507161 -.00000055  00000-0  14632-4 0  9999,2 52698  53.2174  72.8048 0001445  88.4480 271.6678 15.08837428 80471,6917.888,95.438,540.753,538.754,0.0
52698.0,STARLINK-4030,PAYLOAD,2023-10-26 16:44:28,15.08839924,0.0001472,53.2173,72.2103,95.5339,264.5821,6.6772e-05,7.75e-06,0.0,0 STARLINK-4030,1 52698U 22053AU  23299.69755062  .00000775  00000-0  66772-4 0  9998,2 52698  53.2173  72.2103 0001472  95.5339 264.5821 15.08839924 80494,6917.881,95.438,540.764,538.727,0.0
52698.0,STARLINK-4030,PAYLOAD,2023-10-27 02:16:47,15.08845459,0.0001439,53.2176,70.4266,90.3614,269.7543,0.0002111,3.074e-05,0.0,0 STARLINK-4030,1 52698U 22053AU  23300.09498854  .00003074  00000-0  21110-3 0  9999,2 52698  53.2176  70.4266 0001439  90.3614 269.7543 15.08845459 80150,6917.864,95.437,540.724,538.733,0.0
52698.0,STARLINK-4030,PAYLOAD,2023-10-27 08:38:19,15.08850077,0.0001365,53.2174,69.2366,90.0498,270.065,0.00027,4.013e-05,0.0,0 STARLINK-4030,1 52698U 22053AU  23300.35994616  .00004013  00000-0  27000-3 0  9993,2 52698  53.2174  69.2366 0001365  90.0498 270.0650 15.08850077 80594,6917.85,95.437,540.659,538.77,0.0
52698.0,STARLINK-4030,PAYLOAD,2023-10-27 14:59:51,15.08857648,0.0001437,53.2168,68.0475,82.9277,277.1878,0.0003902,5.93e-05,0.0,0 STARLINK-4030,1 52698U 22053AU  23300.62490253  .00005930  00000-0  39020-3 0  9995,2 52698  53.2168  68.0475 0001437  82.9277 277.1878 15.08857648 80636,6917.826,95.436,540.686,538.697,0.0
52698.0,STARLINK-4030,PAYLOAD,2023-10-28 02:07:33,15.08852235,8.86e-05,53.2171,65.9657,90.5162,269.5931,0.00027163,4.039e-05,0.0,0 STARLINK-4030,1 52698U 22053AU  23301.08858151  .00004039  00000-0  27163-3 0  9995,2 52698  53.2171  65.9657 0000886  90.5162 269.5931 15.08852235 80309,6917.843,95.437,540.321,539.095,0.0
52698.0,STARLINK-4030,PAYLOAD,2023-10-28 14:50:39,15.0883314,0.0001618,53.2192,63.5848,110.298,249.8186,-6.6752e-05,-1.35e-05,0.0,0 STARLINK-4030,1 52698U 22053AU  23301.61851243 -.00001350  00000-0 -66752-4 0  9992,2 52698  53.2192  63.5848 0001618 110.2980 249.8186 15.08833140 80789,6917.901,95.438,540.886,538.647,0.0
52698.0,STARLINK-4030,PAYLOAD,2023-10-28 18:01:25,15.08834706,0.0001764,53.2186,62.989,111.7641,248.3539,-1.6348e-05,-5.48e-06,0.0,0 STARLINK-4030,1 52698U 22053AU  23301.75099240 -.00000548  00000-0 -16348-4 0  9992,2 52698  53.2186  62.9890 0001764 111.7641 248.3539 15.08834706 80408,6917.897,95.438,540.982,538.541,0.0
52698.0,STARLINK-4030,PAYLOAD,2023-10-29 11:30:39,15.08854725,0.0001399,53.2177,59.7216,79.9944,280.1206,0.00032366,4.869e-05,0.0,0 STARLINK-4030,1 52698U 22053AU  23302.47962394  .00004869  00000-0  32366-3 0  9996,2 52698  53.2177  59.7216 0001399  79.9944 280.1206 15.08854725 80519,6917.835,95.437,540.668,538.733,0.0
52698.0,STARLINK-4030,PAYLOAD,2023-10-29 14:41:25,15.08870192,0.0001465,53.217,59.1255,93.9967,266.1193,0.00062974,9.757e-05,0.0,0 STARLINK-4030,1 52698U 22053AU  23302.61209784  .00009757  00000-0  62974-3 0  9998,2 52698  53.2170  59.1255 0001465  93.9967 266.1193 15.08870192 80935,6917.788,95.436,540.667,538.64,0.0
52698.0,STARLINK-4030,PAYLOAD,2023-10-29 17:52:11,15.08872446,0.000112,53.2192,58.5297,94.8105,265.3015,0.00080578,0.00012571,0.0,0 STARLINK-4030,1 52698U 22053AU  23302.74457584  .00012571  00000-0  80578-3 0  9993,2 52698  53.2192  58.5297 0001120  94.8105 265.3015 15.08872446 80556,6917.781,95.436,540.421,538.871,0.0
52698.0,STARLINK-4030,PAYLOAD,2023-10-30 11:21:27,15.0883493,0.0001515,53.2198,55.2594,106.0161,254.0998,-7.8135e-05,-1.531e-05,0.0,0 STARLINK-4030,1 52698U 22053AU  23303.47323115 -.00001531  00000-0 -78135-4 0  9999,2 52698  53.2198  55.2594 0001515 106.0161 254.0998 15.08834930 80665,6917.896,95.438,540.809,538.713,0.0
52698.0,STARLINK-4030,PAYLOAD,2023-10-30 19:18:22,15.08841206,0.0001403,53.2184,53.7719,101.9589,258.156,8.7941e-05,1.112e-05,0.0,0 STARLINK-4030,1 52698U 22053AU  23303.80442852  .00001112  00000-0  87941-4 0  9994,2 52698  53.2184  53.7719 0001403 101.9589 258.1560 15.08841206 81111,6917.877,95.437,540.712,538.771,0.0
52698.0,STARLINK-4030,PAYLOAD,2023-10-31 12:47:37,15.0882919,0.0001684,53.2202,50.4998,96.8776,263.2408,0.0004166,6.346e-05,0.0,0 STARLINK-4030,1 52698U 22053AU  23304.53307794  .00006346  00000-0  41660-3 0  9991,2 52698  53.2202  50.4998 0001684  96.8776 263.2408 15.08829190 80829,6917.913,95.438,540.943,538.613,0.0
52698.0,STARLINK-4030,PAYLOAD,2023-10-31 14:23:00,15.08834098,0.0001407,53.2185,50.2063,99.7126,260.4025,0.0006854,0.00010635,0.0,0 STARLINK-4030,1 52698U 22053AU  23304.59931708  .00010635  00000-0  68540-3 0  9997,2 52698  53.2185  50.2063 0001407  99.7126 260.4025 15.08834098 81237,6917.898,95.438,540.737,538.79,0.0
52698.0,STARLINK-4030,PAYLOAD,2023-10-31 15:58:24,15.08837588,0.0001383,53.2189,49.909,95.204,264.911,0.0011427,0.00017944,0.0,0 STARLINK-4030,1 52698U 22053AU  23304.66555941  .00017944  00000-0  11427-2 0  9997,2 52698  53.2189  49.9090 0001383  95.2040 264.9110 15.08837588 81247,6917.888,95.438,540.71,538.796,0.0
52698.0,STARLINK-4030,PAYLOAD,2023-11-01 14:13:48,15.0884531,0.0001358,53.2185,45.7445,82.3838,277.7308,0.00060246,9.315e-05,0.0,0 STARLINK-4030,1 52698U 22053AU  23305.59292245  .00009315  00000-0  60246-3 0  9992,2 52698  53.2185  45.7445 0001358  82.3838 277.7308 15.08845310 81383,6917.864,95.437,540.669,538.79,0.0
52698.0,STARLINK-4030,PAYLOAD,2023-11-02 14:04:35,15.08868008,0.0001366,53.2174,41.2851,85.3788,274.736,0.001153,0.00018124,0.0,0 STARLINK-4030,1 52698U 22053AU  23306.58651736  .00018124  00000-0  11530-2 0  9995,2 52698  53.2174  41.2851 0001366  85.3788 274.7360 15.08868008 81530,6917.795,95.436,540.605,538.715,0.0
52698.0,STARLINK-4030,PAYLOAD,2023-11-02 23:36:53,15.08855837,0.0001452,53.2192,39.5012,93.2922,266.8236,0.00031279,4.696e-05,0.0,0 STARLINK-4030,1 52698U 22053AU  23306.98395562  .00004696  00000-0  31279-3 0  9993,2 52698  53.2192  39.5012 0001452  93.2922 266.8236 15.08855837 81195,6917.832,95.437,540.701,538.693,0.0
52698.0,STARLINK-4030,PAYLOAD,2023-11-03 10:44:36,15.08845142,0.0002332,53.219,37.4187,94.9739,265.152,0.00017403,2.483e-05,0.0,0 STARLINK-4030,1 52698U 22053AU  23307.44763914  .00002483  00000-0  17403-3 0  9990,2 52698  53.2190  37.4187 0002332  94.9739 265.1520 15.08845142 81269,6917.865,95.437,541.343,538.116,0.0
52698.0,STARLINK-4030,PAYLOAD,2023-11-03 13:55:22,15.0885199,0.0001393,53.2171,36.8253,96.9929,263.1221,0.00032828,4.942e-05,0.0,0 STARLINK-4030,1 52698U 22053AU  23307.58011587  .00004942  00000-0  32828-3 0  9997,2 52698  53.2171  36.8253 0001393  96.9929 263.1221 15.08851990 81684,6917.844,95.437,540.672,538.745,0.0
52698.0,STARLINK-4030,PAYLOAD,2023-11-04 10:35:23,15.0883732,0.000135,53.2184,32.9573,97.6517,262.4628,0.00017136,2.44e-05,0.0,0 STARLINK-4030,1 52698U 22053AU  23308.44124119  .00002440  00000-0  17136-3 0  9995,2 52698  53.2184  32.9573 0001350  97.6517 262.4628 15.08837320 81419,6917.889,95.438,540.687,538.82,0.0
52698.0,STARLINK-4030,PAYLOAD,2023-11-04 12:10:46,15.08843374,0.0001434,53.2174,32.6608,92.569,267.5466,0.00018867,2.716e-05,0.0,0 STARLINK-4030,1 52698U 22053AU  23308.50748019  .00002716  00000-0  18867-3 0  9991,2 52698  53.2174  32.6608 0001434  92.5690 267.5466 15.08843374 81820,6917.87,95.437,540.727,538.743,0.0
52698.0,STARLINK-4030,PAYLOAD,2023-11-04 23:18:28,15.08850183,0.0001382,53.217,30.5807,88.5683,271.5467,0.00047091,7.217e-05,0.0,0 STARLINK-4030,1 52698U 22053AU  23308.97115957  .00007217  00000-0  47091-3 0  9993,2 52698  53.2170  30.5807 0001382  88.5683 271.5467 15.08850183 81498,6917.849,95.437,540.67,538.758,0.0
52698.0,STARLINK-4030,PAYLOAD,2023-11-05 12:01:32,15.08861414,0.0001697,53.22,28.2011,95.8687,264.2498,0.00062129,9.619e-05,0.0,0 STARLINK-4030,1 52698U 22053AU  23309.50107518  .00009619  00000-0  62129-3 0  9994,2 52698  53.2200  28.2011 0001697  95.8687 264.2498 15.08861414 81972,6917.815,95.436,540.854,538.506,0.0
52698.0,STARLINK-4030,PAYLOAD,2023-11-06 11:52:18,15.08877889,0.0001463,53.219,23.7403,105.1451,254.9703,0.00091095,0.00014254,0.0,0 STARLINK-4030,1 52698U 22053AU  23310.49466216  .00014254  00000-0  91095-3 0  9992,2 52698  53.2190  23.7403 0001463 105.1451 254.9703 15.08877889 81721,6917.765,95.435,540.642,538.618,0.0
52698.0,STARLINK-4030,PAYLOAD,2023-11-07 11:43:09,15.08822978,0.0001458,53.2196,19.2801,90.827,269.2889,0.001434,0.00022597,0.0,0 STARLINK-4030,1 52698U 22053AU  23311.48829932  .00022597  00000-0  14340-2 0  9996,2 52698  53.2196  19.2801 0001458  90.8270 269.2889 15.08822978 81871,6917.932,95.439,540.806,538.789,0.0
52698.0,STARLINK-4030,PAYLOAD,2023-11-07 21:15:23,15.09103483,0.0001595,53.2201,17.5001,263.6982,96.3828,0.013027,0.00214976,0.0,0 STARLINK-4030,1 52698U 22053AU  23311.88569193  .00214976  00000-0  13027-1 0  9994,2 52698  53.2201  17.5001 0001595 263.6982  96.3828 15.09103483 81936,6917.075,95.421,540.043,537.837,0.0
